ONEWEB-0620             
1 55161U 23004X   25131.81720708  .00000460  00000+0  12612-2 0  9995
2 55161  87.8813 101.0983 0002351  94.0001 266.1396 13.11416402113227
ONEWEB-0621             
1 55162U 23004Y   25131.92063269 -.00000038  00000+0 -14171-3 0  9996
2 55162  87.8807 101.0363 0002170  79.3742 280.7630 13.11412705113214
ONEWEB-0622             
1 55163U 23004Z   25131.62053245 -.00000220  00000+0 -65603-3 0  9996
2 55163  87.8810 101.1182 0002821  87.0928 273.0523 13.11415122113160
ONEWEB-0623             
1 55164U 23004AA  25131.84737306  .00000017  00000+0  11351-4 0  9992
2 55164  87.9049  85.8082 0002817  78.1208 282.0239 13.17650227114731
ONEWEB-0624             
1 55165U 23004AB  25131.80191773  .00000103  00000+0  24846-3 0  9999
2 55165  87.8885  70.5106 0002070  79.3883 280.7479 13.12938026115407
ONEWEB-0625             
1 55166U 23004AC  25131.83726037 -.00000004  00000+0 -42633-4 0  9997
2 55166  87.9049  85.8082 0001881  80.0302 280.1042 13.17649021114720
ONEWEB-0626             
1 55167U 23004AD  25131.82712027 -.00000002  00000+0 -37653-4 0  9995
2 55167  87.9050  85.8083 0001908  99.7077 260.4270 13.17650411114729
ONEWEB-0627             
1 55168U 23004AE  25131.81533811 -.00000027  00000+0 -10177-3 0  9995
2 55168  87.9051  85.8136 0002643  82.7559 277.3873 13.17651858114726
